{
  "type": "FeatureCollection",
  "features": [
    {
      "type": "Feature",
      "properties": {
        "norad_id": 34648,
        "name": "IRIDIUM 33 DEB",
        "group": "iridium-33-debris",
        "lat": 19.330823417087686,
        "lon": 94.75923790529652,
        "alt_km": 855.7126013017933,
        "timestamp": "2025-12-27T09:28:56.862587+00:00",
        "meta_object_name": "IRIDIUM 33 DEB",
        "meta_object_id": "1997-051JZ",
        "meta_epoch": "2025-12-26T17:23:51.360000",
        "meta_mean_motion": 14.11887507,
        "meta_eccentricity": 0.01778864,
        "meta_inclination": 86.3901,
        "meta_ra_of_asc_node": 276.2989,
        "meta_arg_of_pericenter": 254.825,
        "meta_mean_anomaly": 103.3201,
        "meta_ephemeris_type": 0,
        "meta_classification_type": "U",
        "meta_norad_cat_id": 34648,
        "meta_element_set_no": 999,
        "meta_rev_at_epoch": 85158,
        "meta_bstar": 0.0061458154,
        "meta_mean_motion_dot": 0.00013057,
        "meta_mean_motion_ddot": 0,
        "tle_line1": "1 34648U 97051JZ  25360.72490000  .00013057  00000+0  61458-2 0  9996",
        "tle_line2": "2 34648  86.3901 276.2989 0177886 254.8250 103.3201 14.11887507851589"
      },
      "geometry": {
        "type": "Point",
        "coordinates": [
          94.75923790529652,
          19.330823417087686
        ]
      }
    },
    {
      "type": "Feature",
      "properties": {
        "norad_id": 34651,
        "name": "IRIDIUM 33 DEB",
        "group": "iridium-33-debris",
        "lat": -71.21781701824843,
        "lon": -34.6371191590813,
        "alt_km": 817.8451092000896,
        "timestamp": "2025-12-27T09:28:56.862597+00:00",
        "meta_object_name": "IRIDIUM 33 DEB",
        "meta_object_id": "1997-051KC",
        "meta_epoch": "2025-12-25T15:53:57.959232",
        "meta_mean_motion": 14.26027654,
        "meta_eccentricity": 0.0142018,
        "meta_inclination": 86.2827,
        "meta_ra_of_asc_node": 135.0795,
        "meta_arg_of_pericenter": 163.1805,
        "meta_mean_anomaly": 197.4168,
        "meta_ephemeris_type": 0,
        "meta_classification_type": "U",
        "meta_norad_cat_id": 34651,
        "meta_element_set_no": 999,
        "meta_rev_at_epoch": 86080,
        "meta_bstar": 0.0036817,
        "meta_mean_motion_dot": 9.797e-05,
        "meta_mean_motion_ddot": 0,
        "tle_line1": "1 34651U 97051KC  25359.66247638  .00009797  00000+0  36817-2 0  9995",
        "tle_line2": "2 34651  86.2827 135.0795 0142018 163.1805 197.4168 14.26027654860809"
      },
      "geometry": {
        "type": "Point",
        "coordinates": [
          -34.6371191590813,
          -71.21781701824843
        ]
      }
    },
    {
      "type": "Feature",
      "properties": {
        "norad_id": 34652,
        "name": "IRIDIUM 33 DEB",
        "group": "iridium-33-debris",
        "lat": 47.3841443147493,
        "lon": -22.52636670266702,
        "alt_km": 699.2281421729904,
        "timestamp": "2025-12-27T09:28:56.862608+00:00",
        "meta_object_name": "IRIDIUM 33 DEB",
        "meta_object_id": "1997-051KD",
        "meta_epoch": "2025-12-26T21:54:14.287104",
        "meta_mean_motion": 14.62189264,
        "meta_eccentricity": 0.0025481,
        "meta_inclination": 86.332,
        "meta_ra_of_asc_node": 333.6903,
        "meta_arg_of_pericenter": 246.0109,
        "meta_mean_anomaly": 143.6409,
        "meta_ephemeris_type": 0,
        "meta_classification_type": "U",
        "meta_norad_cat_id": 34652,
        "meta_element_set_no": 999,
        "meta_rev_at_epoch": 88691,
        "meta_bstar": 0.0011443,
        "meta_mean_motion_dot": 5.808e-05,
        "meta_mean_motion_ddot": 0,
        "tle_line1": "1 34652U 97051KD  25360.91266536  .00005808  00000+0  11443-2 0  9991",
        "tle_line2": "2 34652  86.3320 333.6903 0025481 246.0109 143.6409 14.62189264886915"
      },
      "geometry": {
        "type": "Point",
        "coordinates": [
          -22.52636670266702,
          47.3841443147493
        ]
      }
    },
    {
      "type": "Feature",
      "properties": {
        "norad_id": 34690,
        "name": "IRIDIUM 33 DEB",
        "group": "iridium-33-debris",
        "lat": -80.65265354212775,
        "lon": -126.74244401364565,
        "alt_km": 715.0073969071782,
        "timestamp": "2025-12-27T09:28:56.862618+00:00",
        "meta_object_name": "IRIDIUM 33 DEB",
        "meta_object_id": "1997-051KM",
        "meta_epoch": "2025-12-26T19:53:36.427776",
        "meta_mean_motion": 14.55146043,
        "meta_eccentricity": 0.00092349,
        "meta_inclination": 86.3773,
        "meta_ra_of_asc_node": 30.867,
        "meta_arg_of_pericenter": 341.6712,
        "meta_mean_anomaly": 195.6004,
        "meta_ephemeris_type": 0,
        "meta_classification_type": "U",
        "meta_norad_cat_id": 34690,
        "meta_element_set_no": 999,
        "meta_rev_at_epoch": 88299,
        "meta_bstar": 0.00044241179,
        "meta_mean_motion_dot": 1.932e-05,
        "meta_mean_motion_ddot": 0,
        "tle_line1": "1 34690U 97051KM  25360.82889384  .00001932  00000+0  44241-3 0  9992",
        "tle_line2": "2 34690  86.3773  30.8670 0009234 341.6712 195.6004 14.55146043882998"
      },
      "geometry": {
        "type": "Point",
        "coordinates": [
          -126.74244401364565,
          -80.65265354212775
        ]
      }
    },
    {
      "type": "Feature",
      "properties": {
        "norad_id": 34693,
        "name": "IRIDIUM 33 DEB",
        "group": "iridium-33-debris",
        "lat": -80.06720897955758,
        "lon": -85.13185988374559,
        "alt_km": 479.88751205814424,
        "timestamp": "2025-12-27T09:28:56.862628+00:00",
        "meta_object_name": "IRIDIUM 33 DEB",
        "meta_object_id": "1997-051KQ",
        "meta_epoch": "2025-12-26T19:48:57.228768",
        "meta_mean_motion": 15.31583943,
        "meta_eccentricity": 0.00088429,
        "meta_inclination": 86.3049,
        "meta_ra_of_asc_node": 296.8095,
        "meta_arg_of_pericenter": 29.7643,
        "meta_mean_anomaly": 351.8395,
        "meta_ephemeris_type": 0,
        "meta_classification_type": "U",
        "meta_norad_cat_id": 34693,
        "meta_element_set_no": 999,
        "meta_rev_at_epoch": 89130,
        "meta_bstar": 0.005056928,
        "meta_mean_motion_dot": 0.00157281,
        "meta_mean_motion_ddot": 0,
        "tle_line1": "1 34693U 97051KQ  25360.82566237  .00157281  00000+0  50569-2 0  9992",
        "tle_line2": "2 34693  86.3049 296.8095 0008842  29.7643 351.8395 15.31583943891306"
      },
      "geometry": {
        "type": "Point",
        "coordinates": [
          -85.13185988374559,
          -80.06720897955758
        ]
      }
    },
    {
      "type": "Feature",
      "properties": {
        "norad_id": 34696,
        "name": "IRIDIUM 33 DEB",
        "group": "iridium-33-debris",
        "lat": -44.38784517993775,
        "lon": -155.55472356503643,
        "alt_km": 695.5364213061785,
        "timestamp": "2025-12-27T09:28:56.862639+00:00",
        "meta_object_name": "IRIDIUM 33 DEB",
        "meta_object_id": "1997-051KT",
        "meta_epoch": "2025-12-27T02:10:03.448416",
        "meta_mean_motion": 14.65770071,
        "meta_eccentricity": 0.0073771,
        "meta_inclination": 86.1861,
        "meta_ra_of_asc_node": 20.8432,
        "meta_arg_of_pericenter": 119.2353,
        "meta_mean_anomaly": 297.1257,
        "meta_ephemeris_type": 0,
        "meta_classification_type": "U",
        "meta_norad_cat_id": 34696,
        "meta_element_set_no": 999,
        "meta_rev_at_epoch": 86883,
        "meta_bstar": 0.0050796,
        "meta_mean_motion_dot": 0.00028933,
        "meta_mean_motion_ddot": 0,
        "tle_line1": "1 34696U 97051KT  25361.09031769  .00028933  00000+0  50796-2 0  9995",
        "tle_line2": "2 34696  86.1861  20.8432 0073771 119.2353 297.1257 14.65770071868832"
      },
      "geometry": {
        "type": "Point",
        "coordinates": [
          -155.55472356503643,
          -44.38784517993775
        ]
      }
    },
    {
      "type": "Feature",
      "properties": {
        "norad_id": 34765,
        "name": "IRIDIUM 33 DEB",
        "group": "iridium-33-debris",
        "lat": -59.092305795259854,
        "lon": -147.38706314504336,
        "alt_km": 761.1825525109361,
        "timestamp": "2025-12-27T09:28:56.862649+00:00",
        "meta_object_name": "IRIDIUM 33 DEB",
        "meta_object_id": "1997-051LJ",
        "meta_epoch": "2025-12-27T02:00:13.091040",
        "meta_mean_motion": 14.40501375,
        "meta_eccentricity": 0.0016993,
        "meta_inclination": 86.3377,
        "meta_ra_of_asc_node": 26.6052,
        "meta_arg_of_pericenter": 163.84,
        "meta_mean_anomaly": 260.2304,
        "meta_ephemeris_type": 0,
        "meta_classification_type": "U",
        "meta_norad_cat_id": 34765,
        "meta_element_set_no": 999,
        "meta_rev_at_epoch": 87820,
        "meta_bstar": 0.00044426,
        "meta_mean_motion_dot": 1.435e-05,
        "meta_mean_motion_ddot": 0,
        "tle_line1": "1 34765U 97051LJ  25361.08348485  .00001435  00000+0  44426-3 0  9999",
        "tle_line2": "2 34765  86.3377  26.6052 0016993 163.8400 260.2304 14.40501375878204"
      },
      "geometry": {
        "type": "Point",
        "coordinates": [
          -147.38706314504336,
          -59.092305795259854
        ]
      }
    }
  ]
}